{
  "type": "FeatureCollection",
  "features": [
    {
      "type": "Feature",
      "properties": {
        "norad_id": 66592,
        "name": "STARLINK-36066",
        "group": "last-30-days",
        "lat": -40.0297611871444,
        "lon": 115.48982559249231,
        "alt_km": 360.29212519106113,
        "timestamp": "2025-12-06T05:40:08.012317+00:00",
        "meta_object_name": "STARLINK-36066",
        "meta_object_id": "2025-270E",
        "meta_epoch": "2025-12-05T06:00:02.000160",
        "meta_mean_motion": 15.74046486,
        "meta_eccentricity": 0.00017231,
        "meta_inclination": 42.9987,
        "meta_ra_of_asc_node": 237.0948,
        "meta_arg_of_pericenter": 277.3674,
        "meta_mean_anomaly": 145.3184,
        "meta_ephemeris_type": 0,
        "meta_classification_type": "U",
        "meta_norad_cat_id": 66592,
        "meta_element_set_no": 999,
        "meta_rev_at_epoch": 309,
        "meta_bstar": -0.01466734,
        "meta_mean_motion_dot": -0.01879138,
        "meta_mean_motion_ddot": 0,
        "tle_line1": "1 66592U 25270E   25339.25002315 -.01879138  00000+0 -14667-1 0  9997",
        "tle_line2": "2 66592  42.9987 237.0948 0001723 277.3674 145.3184 15.74046486  3094"
      },
      "geometry": {
        "type": "Point",
        "coordinates": [
          115.48982559249231,
          -40.0297611871444
        ]
      }
    },
    {
      "type": "Feature",
      "properties": {
        "norad_id": 66593,
        "name": "STARLINK-36031",
        "group": "last-30-days",
        "lat": -40.56910558879696,
        "lon": 117.88923352074633,
        "alt_km": 360.3121882120622,
        "timestamp": "2025-12-06T05:40:08.012328+00:00",
        "meta_object_name": "STARLINK-36031",
        "meta_object_id": "2025-270F",
        "meta_epoch": "2025-12-05T06:00:02.000160",
        "meta_mean_motion": 15.74043804,
        "meta_eccentricity": 0.00017468,
        "meta_inclination": 42.9988,
        "meta_ra_of_asc_node": 237.0898,
        "meta_arg_of_pericenter": 279.2675,
        "meta_mean_anomaly": 145.3377,
        "meta_ephemeris_type": 0,
        "meta_classification_type": "U",
        "meta_norad_cat_id": 66593,
        "meta_element_set_no": 999,
        "meta_rev_at_epoch": 319,
        "meta_bstar": -0.014658096,
        "meta_mean_motion_dot": -0.01877941,
        "meta_mean_motion_ddot": 0,
        "tle_line1": "1 66593U 25270F   25339.25002315 -.01877941  00000+0 -14658-1 0  9998",
        "tle_line2": "2 66593  42.9988 237.0898 0001746 279.2675 145.3377 15.74043804  3193"
      },
      "geometry": {
        "type": "Point",
        "coordinates": [
          117.88923352074633,
          -40.56910558879696
        ]
      }
    },
    {
      "type": "Feature",
      "properties": {
        "norad_id": 66594,
        "name": "STARLINK-36032",
        "group": "last-30-days",
        "lat": -41.057174399646804,
        "lon": 120.3240608199693,
        "alt_km": 360.3307442034038,
        "timestamp": "2025-12-06T05:40:08.012337+00:00",
        "meta_object_name": "STARLINK-36032",
        "meta_object_id": "2025-270G",
        "meta_epoch": "2025-12-05T06:00:02.000160",
        "meta_mean_motion": 15.74052086,
        "meta_eccentricity": 0.00015872,
        "meta_inclination": 42.9987,
        "meta_ra_of_asc_node": 237.0854,
        "meta_arg_of_pericenter": 274.5611,
        "meta_mean_anomaly": 151.9562,
        "meta_ephemeris_type": 0,
        "meta_classification_type": "U",
        "meta_norad_cat_id": 66594,
        "meta_element_set_no": 999,
        "meta_rev_at_epoch": 293,
        "meta_bstar": -0.014726793,
        "meta_mean_motion_dot": -0.01886013,
        "meta_mean_motion_ddot": 0,
        "tle_line1": "1 66594U 25270G   25339.25002315 -.01886013  00000+0 -14727-1 0  9996",
        "tle_line2": "2 66594  42.9987 237.0854 0001587 274.5611 151.9562 15.74052086  2938"
      },
      "geometry": {
        "type": "Point",
        "coordinates": [
          120.3240608199693,
          -41.057174399646804
        ]
      }
    },
    {
      "type": "Feature",
      "properties": {
        "norad_id": 66595,
        "name": "STARLINK-35711",
        "group": "last-30-days",
        "lat": -41.49420157873052,
        "lon": 122.79804296489672,
        "alt_km": 360.38520804286236,
        "timestamp": "2025-12-06T05:40:08.012350+00:00",
        "meta_object_name": "STARLINK-35711",
        "meta_object_id": "2025-270H",
        "meta_epoch": "2025-12-05T06:00:02.000160",
        "meta_mean_motion": 15.74049094,
        "meta_eccentricity": 0.00016099,
        "meta_inclination": 42.9987,
        "meta_ra_of_asc_node": 237.0794,
        "meta_arg_of_pericenter": 279.0788,
        "meta_mean_anomaly": 149.358,
        "meta_ephemeris_type": 0,
        "meta_classification_type": "U",
        "meta_norad_cat_id": 66595,
        "meta_element_set_no": 999,
        "meta_rev_at_epoch": 330,
        "meta_bstar": -0.014705838,
        "meta_mean_motion_dot": -0.01883495,
        "meta_mean_motion_ddot": 0,
        "tle_line1": "1 66595U 25270H   25339.25002315 -.01883495  00000+0 -14706-1 0  9995",
        "tle_line2": "2 66595  42.9987 237.0794 0001609 279.0788 149.3580 15.74049094  3300"
      },
      "geometry": {
        "type": "Point",
        "coordinates": [
          122.79804296489672,
          -41.49420157873052
        ]
      }
    },
    {
      "type": "Feature",
      "properties": {
        "norad_id": 66596,
        "name": "STARLINK-35811",
        "group": "last-30-days",
        "lat": -41.88638814208795,
        "lon": 125.36986383545505,
        "alt_km": 360.42761818423696,
        "timestamp": "2025-12-06T05:40:08.012361+00:00",
        "meta_object_name": "STARLINK-35811",
        "meta_object_id": "2025-270J",
        "meta_epoch": "2025-12-05T06:00:02.000160",
        "meta_mean_motion": 15.74025221,
        "meta_eccentricity": 0.00012125,
        "meta_inclination": 42.9988,
        "meta_ra_of_asc_node": 237.0755,
        "meta_arg_of_pericenter": 270.668,
        "meta_mean_anomaly": 159.7,
        "meta_ephemeris_type": 0,
        "meta_classification_type": "U",
        "meta_norad_cat_id": 66596,
        "meta_element_set_no": 999,
        "meta_rev_at_epoch": 330,
        "meta_bstar": -0.014480252,
        "meta_mean_motion_dot": -0.01856379,
        "meta_mean_motion_ddot": 0,
        "tle_line1": "1 66596U 25270J   25339.25002315 -.01856379  00000+0 -14480-1 0  9996",
        "tle_line2": "2 66596  42.9988 237.0755 0001212 270.6680 159.7000 15.74025221  3305"
      },
      "geometry": {
        "type": "Point",
        "coordinates": [
          125.36986383545505,
          -41.88638814208795
        ]
      }
    },
    {
      "type": "Feature",
      "properties": {
        "norad_id": 66597,
        "name": "STARLINK-35820",
        "group": "last-30-days",
        "lat": -42.201705750714886,
        "lon": 127.81273112553184,
        "alt_km": 360.48566434499025,
        "timestamp": "2025-12-06T05:40:08.012373+00:00",
        "meta_object_name": "STARLINK-35820",
        "meta_object_id": "2025-270K",
        "meta_epoch": "2025-12-05T06:00:02.000160",
        "meta_mean_motion": 15.74069018,
        "meta_eccentricity": 0.00014643,
        "meta_inclination": 42.9987,
        "meta_ra_of_asc_node": 237.0707,
        "meta_arg_of_pericenter": 277.5139,
        "meta_mean_anomaly": 154.742,
        "meta_ephemeris_type": 0,
        "meta_classification_type": "U",
        "meta_norad_cat_id": 66597,
        "meta_element_set_no": 999,
        "meta_rev_at_epoch": 330,
        "meta_bstar": -0.014867396,
        "meta_mean_motion_dot": -0.01902692,
        "meta_mean_motion_ddot": 0,
        "tle_line1": "1 66597U 25270K   25339.25002315 -.01902692  00000+0 -14867-1 0  9996",
        "tle_line2": "2 66597  42.9987 237.0707 0001464 277.5139 154.7420 15.74069018  3309"
      },
      "geometry": {
        "type": "Point",
        "coordinates": [
          127.81273112553184,
          -42.201705750714886
        ]
      }
    },
    {
      "type": "Feature",
      "properties": {
        "norad_id": 66598,
        "name": "STARLINK-35981",
        "group": "last-30-days",
        "lat": -42.48258523662515,
        "lon": 130.4676328720204,
        "alt_km": 360.31606768042,
        "timestamp": "2025-12-06T05:40:08.012383+00:00",
        "meta_object_name": "STARLINK-35981",
        "meta_object_id": "2025-270L",
        "meta_epoch": "2025-12-05T06:00:02.000160",
        "meta_mean_motion": 15.74014795,
        "meta_eccentricity": 0.0001604,
        "meta_inclination": 42.9987,
        "meta_ra_of_asc_node": 237.0653,
        "meta_arg_of_pericenter": 283.939,
        "meta_mean_anomaly": 150.2719,
        "meta_ephemeris_type": 0,
        "meta_classification_type": "U",
        "meta_norad_cat_id": 66598,
        "meta_element_set_no": 999,
        "meta_rev_at_epoch": 303,
        "meta_bstar": -0.014398926,
        "meta_mean_motion_dot": -0.01846914,
        "meta_mean_motion_ddot": 0,
        "tle_line1": "1 66598U 25270L   25339.25002315 -.01846914  00000+0 -14399-1 0  9991",
        "tle_line2": "2 66598  42.9987 237.0653 0001604 283.9390 150.2719 15.74014795  3030"
      },
      "geometry": {
        "type": "Point",
        "coordinates": [
          130.4676328720204,
          -42.48258523662515
        ]
      }
    }
  ]
}